[{"OBJECT_NAME":"YAOGAN-43 01J","OBJECT_ID":"2024-148J","EPOCH":"2026-03-09T23:54:35.791776","MEAN_MOTION":15.33667219,"ECCENTRICITY":0.00056275,"INCLINATION":34.9924,"RA_OF_ASC_NODE":49.1806,"ARG_OF_PERICENTER":63.4278,"MEAN_ANOMALY":296.7016,"EPHEMERIS_TYPE":0,"CLASSIFICATION_TYPE":"U","NORAD_CAT_ID":60466,"ELEMENT_SET_NO":999,"REV_AT_EPOCH":8718,"BSTAR":0.00053111003,"MEAN_MOTION_DOT":0.0001776,"MEAN_MOTION_DDOT":0},{"OBJECT_NAME":"FENGYUN 1C DEB","OBJECT_ID":"1999-025AMU","EPOCH":"2026-03-09T13:46:16.276800","MEAN_MOTION":15.41895871,"ECCENTRICITY":0.0043781,"INCLINATION":98.2926,"RA_OF_ASC_NODE":203.1751,"ARG_OF_PERICENTER":231.7233,"MEAN_ANOMALY":128.007,"EPHEMERIS_TYPE":0,"CLASSIFICATION_TYPE":"U","NORAD_CAT_ID":30613,"ELEMENT_SET_NO":999,"REV_AT_EPOCH":717,"BSTAR":0.0052699,"MEAN_MOTION_DOT":0.00238104,"MEAN_MOTION_DDOT":0}]
